ONEWEB-0012             
1 44057U 19010A   26192.57218622 -.00000007  00000+0 -53108-4 0  9993
2 44057  87.9079 223.9415 0001660  90.6479 269.4843 13.16593747354774
ONEWEB-0010             
1 44058U 19010B   26192.59753739 -.00000098  00000+0 -29054-3 0  9991
2 44058  87.9083 223.9324 0002366 101.3352 258.8045 13.16592608354820
ONEWEB-0008             
1 44059U 19010C   26192.62286498  .00000122  00000+0  28545-3 0  9999
2 44059  87.9078 223.9229 0002186  87.8601 272.2781 13.16593181354941
ONEWEB-0007             
1 44060U 19010D   26192.60133544  .00000024  00000+0  28522-4 0  9999
2 44060  87.8988 254.3565 0001910 102.6202 257.5142 13.15548180354585
ONEWEB-0006             
1 44061U 19010E   26193.13768826  .00000009  00000+0 -10636-4 0  9997
2 44061  87.8993 254.2171 0002235  99.0656 261.0728 13.15550907354701
ONEWEB-0011             
1 44062U 19010F   26193.10599546 -.00000010  00000+0 -59724-4 0  9990
2 44062  87.9002 254.2328 0002242  97.5598 262.5787 13.15549513354694
ONEWEB-0013             
1 45131U 20008A   26192.62148431 -.00000680  00000+0 -20121-2 0  9996
2 45131  87.8493  47.8928 0001075  53.1561 306.9665 13.09457021309264
ONEWEB-0017             
1 45132U 20008B   26192.96866169 -.00000572  00000+0 -16737-2 0  9997
2 45132  87.8817  31.3296 0001983  92.2682 267.8673 13.10375902311195
ONEWEB-0020             
1 45133U 20008C   26193.01447453  .00000486  00000+0  13555-2 0  9993
2 45133  87.8813  31.3188 0001768  82.2816 277.8512 13.10369361311590
ONEWEB-0021             
1 45134U 20008D   26193.02972436 -.00000274  00000+0 -82187-3 0  9994
2 45134  87.8808  31.3310 0001698  91.2506 268.8816 13.10369728311909
ONEWEB-0023             
1 45136U 20008F   26192.58260796 -.00000624  00000+0 -18234-2 0  9995
2 45136  87.8821  31.4043 0001840  82.1354 277.9982 13.10371853311276
ONEWEB-0024             
1 45137U 20008G   26192.55476077  .00000419  00000+0  11633-2 0  9990
2 45137  87.8831  31.4043 0001883  92.6298 267.5045 13.10369466311438
ONEWEB-0025             
1 45138U 20008H   26192.55448987  .00000387  00000+0  10723-2 0  9993
2 45138  87.8828  31.3936 0002216  82.7261 277.4118 13.10369162311766
ONEWEB-0026             
1 45139U 20008J   26192.95502459  .00000510  00000+0  14035-2 0  9991
2 45139  87.8881  16.1354 0001980  91.3164 268.8191 13.11417222314351
ONEWEB-0028             
1 45140U 20008K   26192.54894522 -.00000277  00000+0 -81628-3 0  9998
2 45140  87.8875  16.2235 0001359  79.6856 280.4425 13.11417959311817
ONEWEB-0032             
1 45141U 20008L   26192.58870612 -.00000480  00000+0 -14100-2 0  9993
2 45141  87.8820  31.4078 0001527  72.5945 287.5350 13.10375354311490
ONEWEB-0033             
1 45142U 20008M   26193.02125205  .00000078  00000+0  18688-3 0  9992
2 45142  87.8813  31.3272 0002144  96.0433 264.0939 13.10369270311467
ONEWEB-0035             
1 45143U 20008N   26192.96540214 -.00000635  00000+0 -18540-2 0  9993
2 45143  87.8813  31.3318 0001839  90.5757 269.5581 13.10377084311181
ONEWEB-0036             
1 45144U 20008P   26193.01945102  .00000242  00000+0  65818-3 0  9999
2 45144  87.8823  31.3375 0001739  85.1760 274.9565 13.10369943311614
ONEWEB-0038             
1 45145U 20008Q   26192.96533603  .00000552  00000+0  15209-2 0  9994
2 45145  87.8877  16.1452 0001743 147.2223 212.9014 13.11415795313576
ONEWEB-0039             
1 45146U 20008R   26192.56650129 -.00000097  00000+0 -31390-3 0  9990
2 45146  87.8814  31.4089 0001291  74.7490 285.3780 13.10371447311354
ONEWEB-0040             
1 45147U 20008S   26193.01785572  .00000263  00000+0  71755-3 0  9995
2 45147  87.8810  31.3293 0001900  77.2221 282.9118 13.10368902311118
ONEWEB-0043             
1 45149U 20008U   26193.01970161  .00000165  00000+0  43712-3 0  9990
2 45149  87.8815  31.3177 0001343  79.0762 281.0517 13.10372127311439
ONEWEB-0044             
1 45150U 20008V   26192.97205770 -.00000490  00000+0 -14396-2 0  9991
2 45150  87.8828  31.3297 0001751  82.0707 278.0619 13.10376847311728
ONEWEB-0045             
1 45151U 20008W   26192.96011127  .00000584  00000+0  16121-2 0  9992
2 45151  87.8885  16.1275 0001730  93.0962 267.0364 13.11416621313656
ONEWEB-0047             
1 45152U 20008X   26192.58331955 -.00000608  00000+0 -17787-2 0  9993
2 45152  87.8825  31.4063 0001850  94.1004 266.0335 13.10372508311398
ONEWEB-0048             
1 45153U 20008Y   26192.96017178 -.00000485  00000+0 -14245-2 0  9993
2 45153  87.8810  31.3496 0001694  91.2989 268.8332 13.10372013311059
ONEWEB-0049             
1 45154U 20008Z   26192.96340390 -.00000612  00000+0 -17910-2 0  9993
2 45154  87.8814  31.3385 0001951  75.2178 284.9166 13.10371759311273
ONEWEB-0051             
1 45155U 20008AA  26192.95841903  .00000561  00000+0  15458-2 0  9995
2 45155  87.8889  16.1354 0001786  85.1084 275.0248 13.11418056314330
ONEWEB-0052             
1 45156U 20008AB  26192.60229849  .00000176  00000+0  46653-3 0  9991
2 45156  87.8825  31.3980 0001857  73.9939 286.1393 13.10377750311131
