OBJECT_NAME,OBJECT_ID,EPOCH,MEAN_MOTION,ECCENTRICITY,INCLINATION,RA_OF_ASC_NODE,ARG_OF_PERICENTER,MEAN_ANOMALY,EPHEMERIS_TYPE,CLASSIFICATION_TYPE,NORAD_CAT_ID,ELEMENT_SET_NO,REV_AT_EPOCH,BSTAR,MEAN_MOTION_DOT,MEAN_MOTION_DDOT
ONEWEB-0012,2019-010A,2026-07-11T13:43:56.889408,13.16593747,.00016607,87.9079,223.9415,90.6479,269.4843,0,U,44057,999,35477,-.53107768E-4,-.7E-7,0
ONEWEB-0010,2019-010B,2026-07-11T14:20:27.230496,13.16592608,.00023661,87.9083,223.9324,101.3352,258.8045,0,U,44058,999,35482,-.29054482E-3,-.98E-6,0
ONEWEB-0008,2019-010C,2026-07-11T14:56:55.534272,13.16593181,.00021869,87.9078,223.9229,87.8601,272.2781,0,U,44059,999,35494,.28544602E-3,.122E-5,0
ONEWEB-0007,2019-010D,2026-07-11T14:25:55.382016,13.15548180,.00019107,87.8988,254.3565,102.6202,257.5142,0,U,44060,999,35458,.28521574E-4,.24E-6,0
ONEWEB-0006,2019-010E,2026-07-12T03:18:16.266528,13.15550907,.00022354,87.8993,254.2171,99.0656,261.0728,0,U,44061,999,35470,-.10635865E-4,.9E-7,0
ONEWEB-0011,2019-010F,2026-07-12T02:32:38.008608,13.15549513,.00022417,87.9002,254.2328,97.5598,262.5787,0,U,44062,999,35469,-.59724388E-4,-.1E-6,0
ONEWEB-0013,2020-008A,2026-07-11T14:54:56.244384,13.09457021,.00010751,87.8493,47.8928,53.1561,306.9665,0,U,45131,999,30926,-.20120831E-2,-.68E-5,0
ONEWEB-0017,2020-008B,2026-07-11T23:14:52.370880,13.10375902,.00019834,87.8817,31.3296,92.2682,267.8673,0,U,45132,999,31119,-.16737209E-2,-.572E-5,0
ONEWEB-0020,2020-008C,2026-07-12T00:20:50.599392,13.10369361,.00017682,87.8813,31.3188,82.2816,277.8512,0,U,45133,999,31159,.13554565E-2,.486E-5,0
ONEWEB-0021,2020-008D,2026-07-12T00:42:48.185568,13.10369728,.00016982,87.8808,31.3310,91.2506,268.8816,0,U,45134,999,31190,-.82186602E-3,-.274E-5,0
ONEWEB-0023,2020-008F,2026-07-11T13:58:57.327744,13.10371853,.00018402,87.8821,31.4043,82.1354,277.9982,0,U,45136,999,31127,-.1823446E-2,-.624E-5,0
ONEWEB-0024,2020-008G,2026-07-11T13:18:51.330528,13.10369466,.00018838,87.8831,31.4043,92.6298,267.5045,0,U,45137,999,31143,.11632732E-2,.419E-5,0
ONEWEB-0025,2020-008H,2026-07-11T13:18:27.924768,13.10369162,.00022162,87.8828,31.3936,82.7261,277.4118,0,U,45138,999,31176,.10723218E-2,.387E-5,0
ONEWEB-0026,2020-008J,2026-07-11T22:55:14.125440,13.11417222,.00019802,87.8881,16.1354,91.3164,268.8191,0,U,45139,999,31435,.14035261E-2,.51E-5,0
ONEWEB-0028,2020-008K,2026-07-11T13:10:28.867008,13.11417959,.00013595,87.8875,16.2235,79.6856,280.4425,0,U,45140,999,31181,-.81627783E-3,-.277E-5,0
ONEWEB-0032,2020-008L,2026-07-11T14:07:44.208768,13.10375354,.00015273,87.8820,31.4078,72.5945,287.5350,0,U,45141,999,31149,-.14099928E-2,-.48E-5,0
ONEWEB-0033,2020-008M,2026-07-12T00:30:36.177984,13.10369270,.00021443,87.8813,31.3272,96.0433,264.0939,0,U,45142,999,31146,.18688205E-3,.78E-6,0
ONEWEB-0035,2020-008N,2026-07-11T23:10:10.745760,13.10377084,.00018391,87.8813,31.3318,90.5757,269.5581,0,U,45143,999,31118,-.18540428E-2,-.635E-5,0
ONEWEB-0036,2020-008P,2026-07-12T00:28:00.568128,13.10369943,.00017388,87.8823,31.3375,85.1760,274.9565,0,U,45144,999,31161,.65818123E-3,.242E-5,0
ONEWEB-0038,2020-008Q,2026-07-11T23:10:05.033856,13.11415795,.00017429,87.8877,16.1452,147.2223,212.9014,0,U,45145,999,31357,.1520928E-2,.552E-5,0
ONEWEB-0039,2020-008R,2026-07-11T13:35:45.711456,13.10371447,.00012911,87.8814,31.4089,74.7490,285.3780,0,U,45146,999,31135,-.31390084E-3,-.97E-6,0
ONEWEB-0040,2020-008S,2026-07-12T00:25:42.734208,13.10368902,.00018999,87.8810,31.3293,77.2221,282.9118,0,U,45147,999,31111,.71755495E-3,.263E-5,0
ONEWEB-0043,2020-008U,2026-07-12T00:28:22.219104,13.10372127,.0001343,87.8815,31.3177,79.0762,281.0517,0,U,45149,999,31143,.43711544E-3,.165E-5,0
ONEWEB-0044,2020-008V,2026-07-11T23:19:45.785280,13.10376847,.0001751,87.8828,31.3297,82.0707,278.0619,0,U,45150,999,31172,-.14396063E-2,-.49E-5,0
ONEWEB-0045,2020-008W,2026-07-11T23:02:33.614592,13.11416621,.00017296,87.8885,16.1275,93.0962,267.0364,0,U,45151,999,31365,.16120669E-2,.584E-5,0
ONEWEB-0047,2020-008X,2026-07-11T13:59:58.809120,13.10372508,.00018504,87.8825,31.4063,94.1004,266.0335,0,U,45152,999,31139,-.17786614E-2,-.608E-5,0
ONEWEB-0048,2020-008Y,2026-07-11T23:02:38.842656,13.10372013,.00016942,87.8810,31.3496,91.2989,268.8332,0,U,45153,999,31105,-.14244772E-2,-.485E-5,0
ONEWEB-0049,2020-008Z,2026-07-11T23:07:18.097824,13.10371759,.00019507,87.8814,31.3385,75.2178,284.9166,0,U,45154,999,31127,-.17909983E-2,-.612E-5,0
ONEWEB-0051,2020-008AA,2026-07-11T23:00:07.404192,13.11418057,.00017855,87.8889,16.1354,85.1084,275.0248,0,U,45155,999,31433,.15457754E-2,.561E-5,0
ONEWEB-0052,2020-008AB,2026-07-11T14:27:18.589536,13.10377750,.00018576,87.8825,31.3980,73.9939,286.1393,0,U,45156,999,31113,.46653412E-3,.176E-5,0
